[{"OBJECT_NAME":"FENGYUN 1C DEB","OBJECT_ID":"1999-025CSX","EPOCH":"2026-03-27T19:44:32.743680","MEAN_MOTION":14.48981676,"ECCENTRICITY":0.02061073,"INCLINATION":98.7638,"RA_OF_ASC_NODE":298.8873,"ARG_OF_PERICENTER":264.4152,"MEAN_ANOMALY":93.3504,"EPHEMERIS_TYPE":0,"CLASSIFICATION_TYPE":"U","NORAD_CAT_ID":32153,"ELEMENT_SET_NO":999,"REV_AT_EPOCH":98745,"BSTAR":0.00018170508,"MEAN_MOTION_DOT":8.39e-6,"MEAN_MOTION_DDOT":0},{"OBJECT_NAME":"FENGYUN 1C DEB","OBJECT_ID":"1999-025CSZ","EPOCH":"2026-03-20T14:27:53.235072","MEAN_MOTION":14.33269653,"ECCENTRICITY":0.0069384,"INCLINATION":98.9608,"RA_OF_ASC_NODE":17.5338,"ARG_OF_PERICENTER":315.0561,"MEAN_ANOMALY":44.5017,"EPHEMERIS_TYPE":0,"CLASSIFICATION_TYPE":"U","NORAD_CAT_ID":32155,"ELEMENT_SET_NO":999,"REV_AT_EPOCH":71624,"BSTAR":0.00045474,"MEAN_MOTION_DOT":1.237e-5,"MEAN_MOTION_DDOT":0},{"OBJECT_NAME":"FENGYUN 1C DEB","OBJECT_ID":"1999-025CTA","EPOCH":"2026-03-24T07:19:26.036544","MEAN_MOTION":14.3218122,"ECCENTRICITY":0.00823532,"INCLINATION":99.363,"RA_OF_ASC_NODE":265.8314,"ARG_OF_PERICENTER":124.4082,"MEAN_ANOMALY":236.492,"EPHEMERIS_TYPE":0,"CLASSIFICATION_TYPE":"U","NORAD_CAT_ID":32156,"ELEMENT_SET_NO":999,"REV_AT_EPOCH":66274,"BSTAR":0.00031625199,"MEAN_MOTION_DOT":8.34e-6,"MEAN_MOTION_DDOT":0},{"OBJECT_NAME":"FENGYUN 1C DEB","OBJECT_ID":"1999-025CTE","EPOCH":"2026-03-27T21:45:03.284064","MEAN_MOTION":14.37989577,"ECCENTRICITY":0.0082113,"INCLINATION":98.894,"RA_OF_ASC_NODE":252.639,"ARG_OF_PERICENTER":48.8326,"MEAN_ANOMALY":311.9905,"EPHEMERIS_TYPE":0,"CLASSIFICATION_TYPE":"U","NORAD_CAT_ID":32160,"ELEMENT_SET_NO":999,"REV_AT_EPOCH":97398,"BSTAR":0.00039975,"MEAN_MOTION_DOT":1.209e-5,"MEAN_MOTION_DDOT":0},{"OBJECT_NAME":"FENGYUN 1C DEB","OBJECT_ID":"1999-025CTF","EPOCH":"2026-03-27T13:33:05.842080","MEAN_MOTION":14.01988382,"ECCENTRICITY":0.0134424,"INCLINATION":98.8288,"RA_OF_ASC_NODE":192.9179,"ARG_OF_PERICENTER":348.7645,"MEAN_ANOMALY":11.0527,"EPHEMERIS_TYPE":0,"CLASSIFICATION_TYPE":"U","NORAD_CAT_ID":32161,"ELEMENT_SET_NO":999,"REV_AT_EPOCH":64898,"BSTAR":0.00023248,"MEAN_MOTION_DOT":3.4e-6,"MEAN_MOTION_DDOT":0},{"OBJECT_NAME":"FENGYUN 1C DEB","OBJECT_ID":"1999-025CTG","EPOCH":"2026-03-27T22:04:04.539936","MEAN_MOTION":14.63550885,"ECCENTRICITY":0.0046263,"INCLINATION":99.4454,"RA_OF_ASC_NODE":152.2557,"ARG_OF_PERICENTER":212.0963,"MEAN_ANOMALY":147.7417,"EPHEMERIS_TYPE":0,"CLASSIFICATION_TYPE":"U","NORAD_CAT_ID":32162,"ELEMENT_SET_NO":999,"REV_AT_EPOCH":96456,"BSTAR":0.0011555,"MEAN_MOTION_DOT":6.03e-5,"MEAN_MOTION_DDOT":0},{"OBJECT_NAME":"FENGYUN 1C DEB","OBJECT_ID":"1999-025CTH","EPOCH":"2026-03-21T19:15:02.782656","MEAN_MOTION":14.43795178,"ECCENTRICITY":0.00518053,"INCLINATION":99.5419,"RA_OF_ASC_NODE":103.5101,"ARG_OF_PERICENTER":105.2022,"MEAN_ANOMALY":255.4902,"EPHEMERIS_TYPE":0,"CLASSIFICATION_TYPE":"U","NORAD_CAT_ID":32163,"ELEMENT_SET_NO":999,"REV_AT_EPOCH":62405,"BSTAR":0.00083814536,"MEAN_MOTION_DOT":2.846e-5,"MEAN_MOTION_DDOT":0},{"OBJECT_NAME":"FENGYUN 1C DEB","OBJECT_ID":"1999-025CTM","EPOCH":"2026-03-26T05:16:24.691008","MEAN_MOTION":14.31255862,"ECCENTRICITY":0.0164028,"INCLINATION":98.4833,"RA_OF_ASC_NODE":82.3075,"ARG_OF_PERICENTER":111.1116,"MEAN_ANOMALY":250.7689,"EPHEMERIS_TYPE":0,"CLASSIFICATION_TYPE":"U","NORAD_CAT_ID":32167,"ELEMENT_SET_NO":999,"REV_AT_EPOCH":64155,"BSTAR":0.00027851,"MEAN_MOTION_DOT":8.09e-6,"MEAN_MOTION_DDOT":0},{"OBJECT_NAME":"FENGYUN 1C DEB","OBJECT_ID":"1999-025CTP","EPOCH":"2026-03-28T00:27:45.368640","MEAN_MOTION":14.74043537,"ECCENTRICITY":0.00321374,"INCLINATION":98.5575,"RA_OF_ASC_NODE":285.9512,"ARG_OF_PERICENTER":152.9131,"MEAN_ANOMALY":207.3761,"EPHEMERIS_TYPE":0,"CLASSIFICATION_TYPE":"U","NORAD_CAT_ID":32169,"ELEMENT_SET_NO":999,"REV_AT_EPOCH":98166,"BSTAR":0.0041614044,"MEAN_MOTION_DOT":0.00027653,"MEAN_MOTION_DDOT":0},{"OBJECT_NAME":"FENGYUN 1C DEB","OBJECT_ID":"1999-025CTR","EPOCH":"2026-03-28T13:38:38.825952","MEAN_MOTION":13.43403439,"ECCENTRICITY":0.0478572,"INCLINATION":102.8039,"RA_OF_ASC_NODE":18.3008,"ARG_OF_PERICENTER":136.595,"MEAN_ANOMALY":40.1713,"EPHEMERIS_TYPE":0,"CLASSIFICATION_TYPE":"U","NORAD_CAT_ID":32171,"ELEMENT_SET_NO":999,"REV_AT_EPOCH":62036,"BSTAR":0.0028137,"MEAN_MOTION_DOT":3.145e-5,"MEAN_MOTION_DDOT":0},{"OBJECT_NAME":"FENGYUN 1C DEB","OBJECT_ID":"1999-025CTU","EPOCH":"2026-03-25T20:57:04.976064","MEAN_MOTION":14.18059138,"ECCENTRICITY":0.0149097,"INCLINATION":98.583,"RA_OF_ASC_NODE":148.7553,"ARG_OF_PERICENTER":309.0811,"MEAN_ANOMALY":49.718,"EPHEMERIS_TYPE":0,"CLASSIFICATION_TYPE":"U","NORAD_CAT_ID":32174,"ELEMENT_SET_NO":999,"REV_AT_EPOCH":65567,"BSTAR":0.00019509,"MEAN_MOTION_DOT":4.03e-6,"MEAN_MOTION_DDOT":0},{"OBJECT_NAME":"FENGYUN 1C DEB","OBJECT_ID":"1999-025CTX","EPOCH":"2026-03-28T07:56:34.202688","MEAN_MOTION":14.57617861,"ECCENTRICITY":0.0051675,"INCLINATION":99.039,"RA_OF_ASC_NODE":110.5726,"ARG_OF_PERICENTER":85.6982,"MEAN_ANOMALY":275.0117,"EPHEMERIS_TYPE":0,"CLASSIFICATION_TYPE":"U","NORAD_CAT_ID":32177,"ELEMENT_SET_NO":999,"REV_AT_EPOCH":72576,"BSTAR":0.001254,"MEAN_MOTION_DOT":5.767e-5,"MEAN_MOTION_DDOT":0},{"OBJECT_NAME":"FENGYUN 1C DEB","OBJECT_ID":"1999-025CTY","EPOCH":"2026-03-27T06:26:18.184128","MEAN_MOTION":14.23562997,"ECCENTRICITY":0.0093916,"INCLINATION":100.3002,"RA_OF_ASC_NODE":110.3786,"ARG_OF_PERICENTER":36.4898,"MEAN_ANOMALY":324.2626,"EPHEMERIS_TYPE":0,"CLASSIFICATION_TYPE":"U","NORAD_CAT_ID":32178,"ELEMENT_SET_NO":999,"REV_AT_EPOCH":65490,"BSTAR":0.00095409,"MEAN_MOTION_DOT":2.216e-5,"MEAN_MOTION_DDOT":0},{"OBJECT_NAME":"FENGYUN 1C DEB","OBJECT_ID":"1999-025CTZ","EPOCH":"2026-03-28T14:41:15.204192","MEAN_MOTION":14.03756137,"ECCENTRICITY":0.0144317,"INCLINATION":98.8899,"RA_OF_ASC_NODE":139.2663,"ARG_OF_PERICENTER":254.6626,"MEAN_ANOMALY":260.2728,"EPHEMERIS_TYPE":0,"CLASSIFICATION_TYPE":"U","NORAD_CAT_ID":32179,"ELEMENT_SET_NO":999,"REV_AT_EPOCH":67213,"BSTAR":0.00019773,"MEAN_MOTION_DOT":2.97e-6,"MEAN_MOTION_DDOT":0}]
