FENGYUN 1C DEB          
1 32153U 99025CSX 26086.82260120  .00000839  00000+0  18171-3 0  9992
2 32153  98.7638 298.8873 0206107 264.4152  93.3504 14.48981676987453
FENGYUN 1C DEB          
1 32155U 99025CSZ 26079.60269948  .00001237  00000+0  45474-3 0  9998
2 32155  98.9608  17.5338 0069384 315.0561  44.5017 14.33269653716249
FENGYUN 1C DEB          
1 32156U 99025CTA 26083.30516246  .00000834  00000+0  31625-3 0  9992
2 32156  99.3630 265.8314 0082353 124.4082 236.4920 14.32181220662745
FENGYUN 1C DEB          
1 32160U 99025CTE 26086.90628801  .00001209  00000+0  39975-3 0  9990
2 32160  98.8940 252.6390 0082113  48.8326 311.9905 14.37989577973989
FENGYUN 1C DEB          
1 32161U 99025CTF 26086.56465095  .00000340  00000+0  23248-3 0  9998
2 32161  98.8288 192.9179 0134424 348.7645  11.0527 14.01988382648986
FENGYUN 1C DEB          
1 32162U 99025CTG 26086.91949699  .00006030  00000+0  11555-2 0  9994
2 32162  99.4454 152.2557 0046263 212.0963 147.7417 14.63550885964568
FENGYUN 1C DEB          
1 32163U 99025CTH 26080.80211554  .00002846  00000+0  83815-3 0  9999
2 32163  99.5419 103.5101 0051805 105.2022 255.4902 14.43795178624059
FENGYUN 1C DEB          
1 32167U 99025CTM 26085.21973022  .00000809  00000+0  27851-3 0  9993
2 32167  98.4833  82.3075 0164028 111.1116 250.7689 14.31255862641559
FENGYUN 1C DEB          
1 32169U 99025CTP 26087.01927510  .00027653  00000+0  41614-2 0  9994
2 32169  98.5575 285.9512 0032137 152.9131 207.3761 14.74043537981666
FENGYUN 1C DEB          
1 32171U 99025CTR 26087.56850493  .00003145  00000+0  28137-2 0  9997
2 32171 102.8039  18.3008 0478572 136.5950  40.1713 13.43403439620368
FENGYUN 1C DEB          
1 32174U 99025CTU 26084.87297426  .00000403  00000+0  19509-3 0  9990
2 32174  98.5830 148.7553 0149097 309.0811  49.7180 14.18059138655675
FENGYUN 1C DEB          
1 32177U 99025CTX 26087.33095142  .00005767  00000+0  12540-2 0  9993
2 32177  99.0390 110.5726 0051675  85.6982 275.0117 14.57617861725762
FENGYUN 1C DEB          
1 32178U 99025CTY 26086.26826602  .00002216  00000+0  95409-3 0  9990
2 32178 100.3002 110.3786 0093916  36.4898 324.2626 14.23562997654908
FENGYUN 1C DEB          
1 32179U 99025CTZ 26087.61198153  .00000297  00000+0  19773-3 0  9991
2 32179  98.8899 139.2663 0144317 254.6626 260.2728 14.03756137672139
